{
  "type": "FeatureCollection",
  "features": [
    {
      "type": "Feature",
      "properties": {
        "norad_id": 66683,
        "name": "TRANSPORTER-15T",
        "group": "last-30-days",
        "lat": -41.00140987593355,
        "lon": -116.1893976557003,
        "alt_km": 518.2285518263334,
        "timestamp": "2025-12-24T18:55:54.775273+00:00",
        "meta_object_name": "TRANSPORTER-15T",
        "meta_object_id": "2025-276T",
        "meta_epoch": "2025-12-24T03:42:41.713344",
        "meta_mean_motion": 15.17040551,
        "meta_eccentricity": 0.00051256,
        "meta_inclination": 97.4441,
        "meta_ra_of_asc_node": 69.7144,
        "meta_arg_of_pericenter": 251.3557,
        "meta_mean_anomaly": 108.7121,
        "meta_ephemeris_type": 0,
        "meta_classification_type": "U",
        "meta_norad_cat_id": 66683,
        "meta_element_set_no": 999,
        "meta_rev_at_epoch": 385,
        "meta_bstar": 0.00075811585,
        "meta_mean_motion_dot": 0.00014954,
        "meta_mean_motion_ddot": 0,
        "tle_line1": "1 66683U 25276T   25358.15464946  .00014954  00000+0  75812-3 0  9991",
        "tle_line2": "2 66683  97.4441  69.7144 0005125 251.3557 108.7121 15.17040551  3857"
      },
      "geometry": {
        "type": "Point",
        "coordinates": [
          -116.1893976557003,
          -41.00140987593355
        ]
      }
    },
    {
      "type": "Feature",
      "properties": {
        "norad_id": 66684,
        "name": "TRANSPORTER-15U",
        "group": "last-30-days",
        "lat": -59.87428041339394,
        "lon": -122.67420121145332,
        "alt_km": 517.8289596634386,
        "timestamp": "2025-12-24T18:55:54.775283+00:00",
        "meta_object_name": "TRANSPORTER-15U",
        "meta_object_id": "2025-276U",
        "meta_epoch": "2025-12-24T05:12:45.406944",
        "meta_mean_motion": 15.17351913,
        "meta_eccentricity": 0.00046042,
        "meta_inclination": 97.4471,
        "meta_ra_of_asc_node": 69.7912,
        "meta_arg_of_pericenter": 234.3017,
        "meta_mean_anomaly": 125.7789,
        "meta_ephemeris_type": 0,
        "meta_classification_type": "U",
        "meta_norad_cat_id": 66684,
        "meta_element_set_no": 999,
        "meta_rev_at_epoch": 386,
        "meta_bstar": 0.00071158128,
        "meta_mean_motion_dot": 0.00014155,
        "meta_mean_motion_ddot": 0,
        "tle_line1": "1 66684U 25276U   25358.21719221  .00014155  00000+0  71158-3 0  9990",
        "tle_line2": "2 66684  97.4471  69.7912 0004604 234.3017 125.7789 15.17351913  3864"
      },
      "geometry": {
        "type": "Point",
        "coordinates": [
          -122.67420121145332,
          -59.87428041339394
        ]
      }
    },
    {
      "type": "Feature",
      "properties": {
        "norad_id": 66685,
        "name": "TRANSPORTER-15V",
        "group": "last-30-days",
        "lat": -67.63925575452073,
        "lon": -128.1875745526747,
        "alt_km": 517.804340850138,
        "timestamp": "2025-12-24T18:55:54.775293+00:00",
        "meta_object_name": "TRANSPORTER-15V",
        "meta_object_id": "2025-276V",
        "meta_epoch": "2025-12-24T05:10:41.316672",
        "meta_mean_motion": 15.17506499,
        "meta_eccentricity": 0.00040791,
        "meta_inclination": 97.4416,
        "meta_ra_of_asc_node": 69.7754,
        "meta_arg_of_pericenter": 257.4685,
        "meta_mean_anomaly": 102.6092,
        "meta_ephemeris_type": 0,
        "meta_classification_type": "U",
        "meta_norad_cat_id": 66685,
        "meta_element_set_no": 999,
        "meta_rev_at_epoch": 386,
        "meta_bstar": 0.00085463641,
        "meta_mean_motion_dot": 0.00017096,
        "meta_mean_motion_ddot": 0,
        "tle_line1": "1 66685U 25276V   25358.21575598  .00017096  00000+0  85464-3 0  9990",
        "tle_line2": "2 66685  97.4416  69.7754 0004079 257.4685 102.6092 15.17506499  3863"
      },
      "geometry": {
        "type": "Point",
        "coordinates": [
          -128.1875745526747,
          -67.63925575452073
        ]
      }
    },
    {
      "type": "Feature",
      "properties": {
        "norad_id": 66686,
        "name": "TRANSPORTER-15W",
        "group": "last-30-days",
        "lat": -63.54819342599202,
        "lon": -124.89589995577033,
        "alt_km": 504.6456541055486,
        "timestamp": "2025-12-24T18:55:54.775308+00:00",
        "meta_object_name": "TRANSPORTER-15W",
        "meta_object_id": "2025-276W",
        "meta_epoch": "2025-12-23T03:56:36.504096",
        "meta_mean_motion": 15.1831658,
        "meta_eccentricity": 0.00058538,
        "meta_inclination": 97.445,
        "meta_ra_of_asc_node": 68.7391,
        "meta_arg_of_pericenter": 311.4119,
        "meta_mean_anomaly": 48.6611,
        "meta_ephemeris_type": 0,
        "meta_classification_type": "U",
        "meta_norad_cat_id": 66686,
        "meta_element_set_no": 999,
        "meta_rev_at_epoch": 370,
        "meta_bstar": 0.05265621,
        "meta_mean_motion_dot": 0.01174743,
        "meta_mean_motion_ddot": 0,
        "tle_line1": "1 66686U 25276W   25357.16431139  .01174743  00000+0  52656-1 0  9995",
        "tle_line2": "2 66686  97.4450  68.7391 0005853 311.4119  48.6611 15.18316580  3702"
      },
      "geometry": {
        "type": "Point",
        "coordinates": [
          -124.89589995577033,
          -63.54819342599202
        ]
      }
    },
    {
      "type": "Feature",
      "properties": {
        "norad_id": 66687,
        "name": "TRANSPORTER-15X",
        "group": "last-30-days",
        "lat": -14.478844323268934,
        "lon": -111.6293714821928,
        "alt_km": 525.0804893358081,
        "timestamp": "2025-12-24T18:55:54.775318+00:00",
        "meta_object_name": "TRANSPORTER-15X",
        "meta_object_id": "2025-276X",
        "meta_epoch": "2025-12-24T05:24:39.071808",
        "meta_mean_motion": 15.16737847,
        "meta_eccentricity": 0.0008099,
        "meta_inclination": 97.4383,
        "meta_ra_of_asc_node": 69.7513,
        "meta_arg_of_pericenter": 49.7417,
        "meta_mean_anomaly": 310.4523,
        "meta_ephemeris_type": 0,
        "meta_classification_type": "U",
        "meta_norad_cat_id": 66687,
        "meta_element_set_no": 999,
        "meta_rev_at_epoch": 386,
        "meta_bstar": 0.00075838683,
        "meta_mean_motion_dot": 0.00014838,
        "meta_mean_motion_ddot": 0,
        "tle_line1": "1 66687U 25276X   25358.22545222  .00014838  00000+0  75839-3 0  9990",
        "tle_line2": "2 66687  97.4383  69.7513 0008099  49.7417 310.4523 15.16737847  3862"
      },
      "geometry": {
        "type": "Point",
        "coordinates": [
          -111.6293714821928,
          -14.478844323268934
        ]
      }
    },
    {
      "type": "Feature",
      "properties": {
        "norad_id": 66688,
        "name": "TRANSPORTER-15Y",
        "group": "last-30-days",
        "lat": -50.66647535378892,
        "lon": -118.8434794407513,
        "alt_km": 518.9358457463195,
        "timestamp": "2025-12-24T18:55:54.775328+00:00",
        "meta_object_name": "TRANSPORTER-15Y",
        "meta_object_id": "2025-276Y",
        "meta_epoch": "2025-12-24T05:15:06.999264",
        "meta_mean_motion": 15.17099055,
        "meta_eccentricity": 0.00038264,
        "meta_inclination": 97.4427,
        "meta_ra_of_asc_node": 69.7761,
        "meta_arg_of_pericenter": 242.4697,
        "meta_mean_anomaly": 117.6148,
        "meta_ephemeris_type": 0,
        "meta_classification_type": "U",
        "meta_norad_cat_id": 66688,
        "meta_element_set_no": 999,
        "meta_rev_at_epoch": 386,
        "meta_bstar": 0.0005708681,
        "meta_mean_motion_dot": 0.00011256,
        "meta_mean_motion_ddot": 0,
        "tle_line1": "1 66688U 25276Y   25358.21883101  .00011256  00000+0  57087-3 0  9997",
        "tle_line2": "2 66688  97.4427  69.7761 0003826 242.4697 117.6148 15.17099055  3865"
      },
      "geometry": {
        "type": "Point",
        "coordinates": [
          -118.8434794407513,
          -50.66647535378892
        ]
      }
    },
    {
      "type": "Feature",
      "properties": {
        "norad_id": 66689,
        "name": "TRANSPORTER-15Z",
        "group": "last-30-days",
        "lat": -29.684894705769757,
        "lon": 74.64684047377305,
        "alt_km": 471.64995249997264,
        "timestamp": "2025-12-24T18:55:54.775338+00:00",
        "meta_object_name": "TRANSPORTER-15Z",
        "meta_object_id": "2025-276Z",
        "meta_epoch": "2025-12-22T21:27:46.425312",
        "meta_mean_motion": 15.23073772,
        "meta_eccentricity": 0.00272271,
        "meta_inclination": 97.4409,
        "meta_ra_of_asc_node": 68.4858,
        "meta_arg_of_pericenter": 260.8557,
        "meta_mean_anomaly": 98.9599,
        "meta_ephemeris_type": 0,
        "meta_classification_type": "U",
        "meta_norad_cat_id": 66689,
        "meta_element_set_no": 999,
        "meta_rev_at_epoch": 366,
        "meta_bstar": 0.086131248,
        "meta_mean_motion_dot": 0.02294864,
        "meta_mean_motion_ddot": 0,
        "tle_line1": "1 66689U 25276Z   25356.89428733  .02294864  00000+0  86131-1 0  9996",
        "tle_line2": "2 66689  97.4409  68.4858 0027227 260.8557  98.9599 15.23073772  3663"
      },
      "geometry": {
        "type": "Point",
        "coordinates": [
          74.64684047377305,
          -29.684894705769757
        ]
      }
    }
  ]
}